Satellite: TechEdSat
Catalog number: 38854
Epoch time:      13115.74827905
Element set:     263
Inclination:      051.6296 deg
RA of node:       346.8231 deg
Eccentricity:    0.0013301
Arg of perigee:   223.1727 deg
Mean anomaly:     136.8241 deg
Mean motion:   15.99241013 rev/day
Decay rate:    6.99860e-03 rev/day^2
Epoch rev:            3180
Checksum:              296

Satellite: F 1
Catalog number: 38855
Epoch time:      13115.71979602
Element set:     244
Inclination:      051.6249 deg
RA of node:       348.1240 deg
Eccentricity:    0.0012135
Arg of perigee:   209.1705 deg
Mean anomaly:     150.8665 deg
Mean motion:   15.93876645 rev/day
Decay rate:    4.87209e-03 rev/day^2
Epoch rev:            3168
Checksum:              316

Satellite: WeWish
Catalog number: 38856
Epoch time:      13069.98095549
Element set:     248
Inclination:      051.6166 deg
RA of node:       215.0521 deg
Eccentricity:    0.0008325
Arg of perigee:   316.0438 deg
Mean anomaly:     044.8765 deg
Mean motion:   16.41348316 rev/day
Decay rate:  1.6701328e-01 rev/day^2
Epoch rev:            2458
Checksum:              318

Satellite: OSSI-1
Catalog number: 39130
Epoch time:      13115.81379825
Element set:      22
Inclination:      064.8803 deg
RA of node:       013.0059 deg
Eccentricity:    0.0017230
Arg of perigee:   203.9480 deg
Mean anomaly:     156.0811 deg
Mean motion:   14.99154376 rev/day
Decay rate:      -9.07e-06 rev/day^2
Epoch rev:              96
Checksum:              274

Satellite: BEESAT2-3
Catalog number: 39131
Epoch time:      13111.50052306
Element set:       2
Inclination:      064.9363 deg
RA of node:       026.5170 deg
Eccentricity:    0.0214649
Arg of perigee:   059.2674 deg
Mean anomaly:     114.9122 deg
Mean motion:   15.54454958 rev/day
Decay rate:     -1.974e-05 rev/day^2
Epoch rev:              32
Checksum:              269

Satellite: GRAHAM
Catalog number: 39142
Epoch time:      13115.87802221
Element set:      14
Inclination:      051.6442 deg
RA of node:       288.7476 deg
Eccentricity:    0.0005501
Arg of perigee:   354.1848 deg
Mean anomaly:     006.1492 deg
Mean motion:   16.23101489 rev/day
Decay rate:   2.496829e-02 rev/day^2
Epoch rev:              64
Checksum:              285

Satellite: BELL
Catalog number: 39143
Epoch time:      13115.93695072
Element set:      19
Inclination:      051.6192 deg
RA of node:       288.3393 deg
Eccentricity:    0.0009337
Arg of perigee:   335.7831 deg
Mean anomaly:     025.1381 deg
Mean motion:   16.27132177 rev/day
Decay rate:   3.947279e-02 rev/day^2
Epoch rev:              66
Checksum:              309

