WeWish
1 38856U 98067CS  13069.98095549  .16701328  12537-4  10063-2 0  2487
2 38856 051.6166 215.0521 0008325 316.0438 044.8765 16.41348316 24586
TechEdSat
1 38854U 98067CQ  13115.74827905  .00699860  23051-3  13830-2 0  2634
2 38854 051.6296 346.8231 0013301 223.1727 136.8241 15.99241013 31800
F 1
1 38855U 98067CR  13115.71979602  .00487209  10547-3  12966-2 0  2440
2 38855 051.6249 348.1240 0012135 209.1705 150.8665 15.93876645 31689
OSSI-1
1 39130U 13015A   13115.81379825 -.00000907  00000-0 -60404-4 0   223
2 39130 064.8803 013.0059 0017230 203.9480 156.0811 14.99154376   960
BEESAT2-3
1 39131U 13015B   13111.50052306 -.00001974  62411-5  00000 0 0    20
2 39131 064.9363 026.5170 0214649 059.2674 114.9122 15.54454958   325
GRAHAM
1 39142U 13016A   13115.87802221  .02496829  11954-4  97596-3 0   142
2 39142 051.6442 288.7476 0005501 354.1848 006.1492 16.23101489   646
BELL
1 39143U 13016B   13115.93695072  .03947279  12084-4  10820-2 0   199
2 39143 051.6192 288.3393 0009337 335.7831 025.1381 16.27132177   663
